     2.10           NAVIGATION                              RINEX VERSION / TYPE
fic2rin                                 07/05/2008 01:14:32 PGM / RUN BY / DATE
                                                            END OF HEADER
17 08  7  4 14  0  0.0  .385972671211D-04  .113686837722D-12  .000000000000D+00
     .390000000000D+02  .237812500000D+02  .458590530708D-08 -.306851307394D+01
     .135414302349D-05  .363487936556D-02  .804476439953D-05  .515376597595D+04
     .482400000000D+06 -.111758708954D-07 -.182556050693D+01  .111758708954D-07
     .959224500465D+00  .223187500000D+03 -.276142047211D+01 -.792425864861D-08
     .734673459241D-09  .100000000000D+01  .148600000000D+04  .000000000000D+00
     .240000000000D+01  .000000000000D+00 -.102445483208D-07  .390000000000D+02
     .475206000000D+06  .400000000000D+01
18 08  7  4 14  0  0.0 -.160243827850D-03  .432009983342D-11  .000000000000D+00
     .540000000000D+02  .690312500000D+02  .457769067919D-08 -.164368040061D+01
     .350363552570D-05  .953292218037D-02  .120662152767D-04  .515370194626D+04
     .482400000000D+06  .931322574615D-07  .291796890695D+00 -.856816768646D-07
     .947600486952D+00  .136687500000D+03 -.250178413548D+01 -.782282585210D-08
    -.211794536378D-09  .100000000000D+01  .148600000000D+04  .000000000000D+00
     .240000000000D+01  .000000000000D+00 -.107102096081D-07  .540000000000D+02
     .475206000000D+06  .400000000000D+01
19 08  7  4 14  0  0.0  .330456532538D-04  .568434188608D-12  .000000000000D+00
     .430000000000D+02  .285625000000D+02  .471591072233D-08  .283338708416D+01
     .146403908730D-05  .481788290199D-02  .747293233871D-05  .515369849968D+04
     .482400000000D+06 -.204890966415D-07 -.176855020609D+01  .540167093277D-07
     .956970704002D+00  .231562500000D+03 -.579754668880D+00 -.801890544817D-08
     .601096466652D-09  .100000000000D+01  .148600000000D+04  .000000000000D+00
     .240000000000D+01  .000000000000D+00 -.144354999065D-07  .430000000000D+02
     .475206000000D+06  .400000000000D+01
20 08  7  4 14  0  0.0  .110681168735D-03 -.909494701773D-12  .000000000000D+00
     .510000000000D+02  .623750000000D+02  .461412076808D-08 -.159037551766D+01
     .340677797794D-05  .363431684673D-02  .113639980555D-04  .515354524040D+04
     .482400000000D+06  .707805156708D-07  .238204962741D+00  .968575477600D-07
     .947123642953D+00  .156062500000D+03  .135366754436D+01 -.790068623815D-08
    -.267868300647D-09  .100000000000D+01  .148600000000D+04  .000000000000D+00
     .240000000000D+01  .000000000000D+00 -.651925802231D-08  .510000000000D+02
     .475206000000D+06  .400000000000D+01
21 08  7  4 14  0  0.0  .591510906816D-04 -.125055521494D-11  .000000000000D+00
     .510000000000D+02 -.179062500000D+02  .555701718636D-08 -.466041496522D+00
    -.713393092155D-06  .141383643495D-01  .559724867344D-05  .515369392586D+04
     .482400000000D+06  .203028321266D-06 -.766056060350D+00  .143423676491D-06
     .935794108998D+00  .255968750000D+03 -.270391166000D+01 -.863714548606D-08
    -.258225041824D-09  .100000000000D+01  .148600000000D+04  .000000000000D+00
     .240000000000D+01  .000000000000D+00 -.116415321827D-07  .510000000000D+02
     .475206000000D+06  .400000000000D+01
22 08  7  4 14  0  0.0  .211508944631D-03  .000000000000D+00  .000000000000D+00
     .980000000000D+02  .673125000000D+02  .461840666089D-08 -.292550211875D+01
     .334344804287D-05  .490052439272D-02  .122655183077D-04  .515367036629D+04
     .482400000000D+06  .577419996262D-07  .298203487338D+00 -.149011611938D-07
     .945238877816D+00  .133531250000D+03 -.182657594470D+01 -.784532678935D-08
    -.282511767749D-09  .100000000000D+01  .148600000000D+04  .000000000000D+00
     .485000000000D+01  .000000000000D+00 -.181607902050D-07  .980000000000D+02
     .475206000000D+06  .400000000000D+01
23 08  7  4 14  0  0.0  .362678896636D-03  .193267624127D-11  .000000000000D+00
     .950000000000D+02  .131281250000D+03  .453197448921D-08  .214650128148D+01
     .701285898685D-05  .570579536725D-02  .361539423466D-05  .515372429085D+04
     .482400000000D+06  .128522515297D-06  .130691609407D+01  .165775418282D-06
     .971162217742D+00  .315468750000D+03  .276133661179D+01 -.827105880851D-08
     .215008955986D-09  .100000000000D+01  .148600000000D+04  .000000000000D+00
     .240000000000D+01  .000000000000D+00 -.200234353542D-07  .950000000000D+02
     .475206000000D+06  .400000000000D+01
24 08  7  4 14  0  0.0  .106889754534D-03  .295585778076D-11  .000000000000D+00
     .900000000000D+02 -.196250000000D+02  .506878256371D-08 -.182134452478D+01
    -.925734639168D-06  .765046663582D-02  .650249421597D-05  .515365872574D+04
     .482400000000D+06 -.165775418282D-06 -.739461887636D+00  .223517417908D-07
     .952472361108D+00  .253500000000D+03 -.730533599120D+00 -.819034116058D-08
    -.294297972978D-09  .100000000000D+01  .148600000000D+04  .000000000000D+00
     .240000000000D+01  .000000000000D+00 -.139698386192D-08  .900000000000D+02
     .475206000000D+06  .400000000000D+01
25 08  7  4 14  0  0.0 -.181578565389D-03 -.727595761418D-11  .000000000000D+00
     .470000000000D+02 -.795937500000D+02  .480341436720D-08 -.132025923967D+01
    -.407546758652D-05  .116706881672D-01  .774860382080D-06  .515369866562D+04
     .482400000000D+06 -.292435288429D-06  .225599923680D+01  .149011611938D-07
     .965262765057D+00  .365000000000D+03 -.124652812167D+01 -.863750264380D-08
    -.347514475373D-09  .100000000000D+01  .148600000000D+04  .000000000000D+00
     .340000000000D+01  .000000000000D+00 -.745058059692D-08  .470000000000D+02
     .475206000000D+06  .400000000000D+01
26 08  7  4 14  0  0.0  .286254100502D-03  .704858393874D-11  .000000000000D+00
     .690000000000D+02  .140406250000D+03  .417660254369D-08  .153616119706D+01
     .707991421223D-05  .191534691257D-01  .423006713390D-05  .515361454010D+04
     .482400000000D+06 -.450760126114D-06  .134982143033D+01 -.186264514923D-07
     .993224333152D+00  .319156250000D+03  .945184672313D+00 -.821177062464D-08
     .282511767749D-09  .100000000000D+01  .148600000000D+04  .000000000000D+00
     .240000000000D+01  .000000000000D+00 -.605359673500D-08  .690000000000D+02
     .475206000000D+06  .400000000000D+01
27 08  7  4 14  0  0.0  .200350303203D-03  .272848410532D-11  .000000000000D+00
     .630000000000D+02 -.815000000000D+02  .467055169008D-08 -.131094997803D+01
    -.394694507122D-05  .211016098037D-01  .143796205521D-05  .515375412369D+04
     .482400000000D+06 -.856816768646D-07  .229090384043D+01  .499188899994D-06
     .969879980286D+00  .353375000000D+03 -.170072956093D+01 -.850571143988D-08
    -.401802450971D-09  .100000000000D+01  .148600000000D+04  .000000000000D+00
     .240000000000D+01  .000000000000D+00 -.419095158577D-08  .630000000000D+02
     .475206000000D+06  .400000000000D+01
28 08  7  4 14  0  0.0 -.207163393497D-04 -.341060513165D-12  .000000000000D+00
     .240000000000D+02 -.116375000000D+03  .375265631320D-08 -.257789022638D+01
    -.598281621933D-05  .138119766489D-01  .125486403704D-04  .515372772026D+04
     .482400000000D+06  .558793544769D-07 -.285784521947D+01 -.987201929092D-07
     .964444897298D+00  .135187500000D+03 -.209503796077D+01 -.738602194318D-08
     .172507185617D-09  .100000000000D+01  .148600000000D+04  .000000000000D+00
     .240000000000D+01  .000000000000D+00 -.102445483208D-07  .240000000000D+02
     .475206000000D+06  .400000000000D+01
29 08  7  4 14  0  0.0 -.420114956796D-04  .341060513165D-12  .000000000000D+00
     .500000000000D+02  .146250000000D+02  .459161983082D-08 -.368971881708D+00
     .840052962303D-06  .374058075249D-02  .808760523796D-05  .515363418961D+04
     .482400000000D+06 -.104308128357D-06 -.181738847538D+01  .428408384323D-07
     .959341857216D+00  .224437500000D+03 -.139641646541D+01 -.794890253227D-08
     .684314218720D-09  .100000000000D+01  .148600000000D+04  .000000000000D+00
     .240000000000D+01  .000000000000D+00 -.884756445885D-08  .500000000000D+02
     .475206000000D+06  .400000000000D+01
30 08  7  4 14  0  0.0  .842893496156D-04  .181898940355D-11  .000000000000D+00
     .490000000000D+02 -.134812500000D+03  .421088968617D-08 -.210494226142D+01
    -.689923763275D-05  .107737592189D-01  .108331441879D-04  .515372627258D+04
     .482400000000D+06  .247731804848D-06 -.292527901057D+01 -.279396772385D-07
     .949475147714D+00  .164062500000D+03  .137622607030D+01 -.767853412748D-08
    -.317870383435D-10  .100000000000D+01  .148600000000D+04  .000000000000D+00
     .340000000000D+01  .000000000000D+00 -.838190317154D-08  .490000000000D+02
     .475206000000D+06  .400000000000D+01
31 08  7  4 14  0  0.0 -.252895988524D-04  .568434188608D-12  .000000000000D+00
     .510000000000D+02 -.798125000000D+02  .462876423518D-08  .306328254933D+00
    -.420771539211D-05  .665962020867D-02  .110454857349D-05  .515377293587D+04
     .482400000000D+06 -.186264514923D-07  .234748392631D+01 -.651925802231D-07
     .968353109280D+00  .365812500000D+03 -.121914795818D+01 -.850392565121D-08
    -.348228790841D-09  .100000000000D+01  .148600000000D+04  .000000000000D+00
     .340000000000D+01  .000000000000D+00 -.130385160446D-07  .510000000000D+02
     .475206000000D+06  .400000000000D+01
32 08  7  4 14  0  0.0  .304154586047D-03  .341060513165D-11  .000000000000D+00
     .600000000000D+02  .732812500000D+02  .419017453759D-08  .140464193736D+01
     .375695526600D-05  .139026818797D-01  .117104500532D-04  .515383756638D+04
     .482400000000D+06  .121071934700D-06  .340782911776D+00 -.333413481712D-06
     .969028886731D+00  .160312500000D+03 -.131028940030D+01 -.770389232661D-08
    -.165006873199D-09  .100000000000D+01  .148600000000D+04  .000000000000D+00
     .240000000000D+01  .000000000000D+00 -.279396772385D-08  .600000000000D+02
     .475206000000D+06  .400000000000D+01
